<?xml version='1.0' encoding='utf-8'?>
<q:quakeml xmlns:ns0="http://geofon.gfz-potsdam.de/ns/seiscomp3-schema/0.7" xmlns:ns1="http://erdbeben-in-bayern.de/xmlns/0.1" xmlns:q="http://quakeml.org/xmlns/quakeml/1.2" xmlns="http://quakeml.org/xmlns/bed/1.2">
  <eventParameters publicID="smi:local/4387dad4-689e-40fd-93ee-b55b08d3e407">
    <event publicID="smi:de.erdbeben-in-bayern/event/2012sora815714">
      <preferredOriginID>smi:de.erdbeben-in-bayern/origin/Origin/20160518064448.298378.6276</preferredOriginID>
      <preferredMagnitudeID>smi:de.erdbeben-in-bayern/magnitude/Origin/20160518064448.298378.6276/netMag.M</preferredMagnitudeID>
      <description>
        <text>Rotorua</text>
        <type>region name</type>
      </description>
      <creationInfo>
        <agencyID>SORA</agencyID>
        <author>scevent@hase</author>
        <creationTime>2016-05-18T06:44:17.282101Z</creationTime>
        <ns0:modificationTime>2016-05-18T06:45:45.130622Z</ns0:modificationTime>
      </creationInfo>
      <origin publicID="smi:de.erdbeben-in-bayern/origin/Origin/20160518064448.298378.6276">
        <time>
          <value>2012-10-28T19:32:46.960000Z</value>
        </time>
        <latitude>
          <value>-38.48716667</value>
          <uncertainty>1.697056275</uncertainty>
        </latitude>
        <longitude>
          <value>176.3733333</value>
          <uncertainty>1.697056275</uncertainty>
        </longitude>
        <depth>
          <value>2850.0</value>
          <uncertainty>2400.0</uncertainty>
        </depth>
        <methodID>smi:de.erdbeben-in-bayern/location_method/Hypo71</methodID>
        <earthModelID>smi:de.erdbeben-in-bayern/earth_model/ROTNGA</earthModelID>
        <quality>
          <associatedPhaseCount>29</associatedPhaseCount>
          <usedPhaseCount>29</usedPhaseCount>
          <usedStationCount>28</usedStationCount>
          <depthPhaseCount>0</depthPhaseCount>
          <standardError>0.35</standardError>
          <azimuthalGap>163.0</azimuthalGap>
          <groundTruthLevel>C</groundTruthLevel>
          <minimumDistance>0.0188962919</minimumDistance>
          <maximumDistance>0.2429523245</maximumDistance>
          <medianDistance>19.9</medianDistance>
        </quality>
        <evaluationMode>automatic</evaluationMode>
        <creationInfo>
          <agencyID>SORA</agencyID>
          <author>screloc@hase</author>
          <creationTime>2016-05-18T06:44:48.298465Z</creationTime>
        </creationInfo>
        <arrival publicID="smi:de.erdbeben-in-bayern/arrival/20121028.193248.50-AIC-NZ.PRRZ.10.EHZ">
          <pickID>smi:de.erdbeben-in-bayern/pick/20121028.193248.50-AIC-NZ.PRRZ.10.EHZ</pickID>
          <phase>P</phase>
          <azimuth>127.0</azimuth>
          <distance>0.0188962919</distance>
          <timeResidual>-0.06</timeResidual>
          <timeWeight>1.0</timeWeight>
          <creationInfo>
            <author>Hypo71</author>
            <creationTime>2016-05-18T06:44:48.298857Z</creationTime>
            <ns0:modificationTime>2016-05-18T06:44:48.298859Z</ns0:modificationTime>
          </creationInfo>
        </arrival>
        <arrival publicID="smi:de.erdbeben-in-bayern/arrival/20121028.193249.95-AIC-NZ.ALRZ.10.EHZ">
          <pickID>smi:de.erdbeben-in-bayern/pick/20121028.193249.95-AIC-NZ.ALRZ.10.EHZ</pickID>
          <phase>P</phase>
          <azimuth>198.0</azimuth>
          <distance>0.07828463788</distance>
          <timeResidual>-0.04</timeResidual>
          <timeWeight>1.0</timeWeight>
          <creationInfo>
            <author>Hypo71</author>
            <creationTime>2016-05-18T06:44:48.298532Z</creationTime>
            <ns0:modificationTime>2016-05-18T06:44:48.298535Z</ns0:modificationTime>
          </creationInfo>
        </arrival>
        <arrival publicID="smi:de.erdbeben-in-bayern/arrival/20121028.193251.02-AIC-NZ.HRRZ.10.EHZ">
          <pickID>smi:de.erdbeben-in-bayern/pick/20121028.193251.02-AIC-NZ.HRRZ.10.EHZ</pickID>
          <phase>P</phase>
          <azimuth>324.0</azimuth>
          <distance>0.1196765154</distance>
          <timeResidual>0.01</timeResidual>
          <timeWeight>1.0</timeWeight>
          <creationInfo>
            <author>Hypo71</author>
            <creationTime>2016-05-18T06:44:48.298632Z</creationTime>
            <ns0:modificationTime>2016-05-18T06:44:48.298635Z</ns0:modificationTime>
          </creationInfo>
        </arrival>
        <arrival publicID="smi:de.erdbeben-in-bayern/arrival/20121028.193251.56-AIC-NZ.NS04.10.EHZ">
          <pickID>smi:de.erdbeben-in-bayern/pick/20121028.193251.56-AIC-NZ.NS04.10.EHZ</pickID>
          <phase>P</phase>
          <azimuth>245.0</azimuth>
          <distance>0.1286747496</distance>
          <timeResidual>0.5</timeResidual>
          <timeWeight>1.0</timeWeight>
          <creationInfo>
            <author>Hypo71</author>
            <creationTime>2016-05-18T06:44:48.298713Z</creationTime>
            <ns0:modificationTime>2016-05-18T06:44:48.298715Z</ns0:modificationTime>
          </creationInfo>
        </arrival>
        <arrival publicID="smi:de.erdbeben-in-bayern/arrival/20121028.193251.62-AIC-NZ.NS03.10.EHZ">
          <pickID>smi:de.erdbeben-in-bayern/pick/20121028.193251.62-AIC-NZ.NS03.10.EHZ</pickID>
          <phase>P</phase>
          <azimuth>254.0</azimuth>
          <distance>0.1340736902</distance>
          <timeResidual>0.46</timeResidual>
          <timeWeight>1.0</timeWeight>
          <creationInfo>
            <author>Hypo71</author>
            <creationTime>2016-05-18T06:44:48.298674Z</creationTime>
            <ns0:modificationTime>2016-05-18T06:44:48.298677Z</ns0:modificationTime>
          </creationInfo>
        </arrival>
        <arrival publicID="smi:de.erdbeben-in-bayern/arrival/20121028.193251.71-AIC-NZ.NS07.10.EHZ">
          <pickID>smi:de.erdbeben-in-bayern/pick/20121028.193251.71-AIC-NZ.NS07.10.EHZ</pickID>
          <phase>P</phase>
          <azimuth>237.0</azimuth>
          <distance>0.1367731604</distance>
          <timeResidual>0.48</timeResidual>
          <timeWeight>1.0</timeWeight>
          <creationInfo>
            <author>Hypo71</author>
            <creationTime>2016-05-18T06:44:48.298743Z</creationTime>
            <ns0:modificationTime>2016-05-18T06:44:48.298746Z</ns0:modificationTime>
          </creationInfo>
        </arrival>
        <arrival publicID="smi:de.erdbeben-in-bayern/arrival/20121028.193252.07-AIC-NZ.NS08.10.EHZ">
          <pickID>smi:de.erdbeben-in-bayern/pick/20121028.193252.07-AIC-NZ.NS08.10.EHZ</pickID>
          <phase>P</phase>
          <azimuth>254.0</azimuth>
          <distance>0.1538698055</distance>
          <timeResidual>0.48</timeResidual>
          <timeWeight>1.0</timeWeight>
          <creationInfo>
            <author>Hypo71</author>
            <creationTime>2016-05-18T06:44:48.298782Z</creationTime>
            <ns0:modificationTime>2016-05-18T06:44:48.298784Z</ns0:modificationTime>
          </creationInfo>
        </arrival>
        <arrival publicID="smi:de.erdbeben-in-bayern/arrival/20121028.193252.18-AIC-NZ.RT12.10.EHZ">
          <pickID>smi:de.erdbeben-in-bayern/pick/20121028.193252.18-AIC-NZ.RT12.10.EHZ</pickID>
          <phase>P</phase>
          <azimuth>223.0</azimuth>
          <distance>0.1727660974</distance>
          <timeResidual>0.14</timeResidual>
          <timeWeight>1.0</timeWeight>
          <creationInfo>
            <author>Hypo71</author>
            <creationTime>2016-05-18T06:44:48.299097Z</creationTime>
            <ns0:modificationTime>2016-05-18T06:44:48.299099Z</ns0:modificationTime>
          </creationInfo>
        </arrival>
        <arrival publicID="smi:de.erdbeben-in-bayern/arrival/20121028.193252.27-AIC-NZ.WPRZ.10.EHZ">
          <pickID>smi:de.erdbeben-in-bayern/pick/20121028.193252.27-AIC-NZ.WPRZ.10.EHZ</pickID>
          <phase>P</phase>
          <azimuth>259.0</azimuth>
          <distance>0.1691668037</distance>
          <timeResidual>0.26</timeResidual>
          <timeWeight>1.0</timeWeight>
          <creationInfo>
            <author>Hypo71</author>
            <creationTime>2016-05-18T06:44:48.299137Z</creationTime>
            <ns0:modificationTime>2016-05-18T06:44:48.29914Z</ns0:modificationTime>
          </creationInfo>
        </arrival>
        <arrival publicID="smi:de.erdbeben-in-bayern/arrival/20121028.193252.29-AIC-NZ.RT07.10.EHZ">
          <pickID>smi:de.erdbeben-in-bayern/pick/20121028.193252.29-AIC-NZ.RT07.10.EHZ</pickID>
          <phase>P</phase>
          <azimuth>228.0</azimuth>
          <distance>0.1754655677</distance>
          <timeResidual>0.26</timeResidual>
          <timeWeight>1.0</timeWeight>
          <creationInfo>
            <author>Hypo71</author>
            <creationTime>2016-05-18T06:44:48.299003Z</creationTime>
            <ns0:modificationTime>2016-05-18T06:44:48.299006Z</ns0:modificationTime>
          </creationInfo>
        </arrival>
        <arrival publicID="smi:de.erdbeben-in-bayern/arrival/20121028.193252.35-AIC-NZ.RT11.10.EHZ">
          <pickID>smi:de.erdbeben-in-bayern/pick/20121028.193252.35-AIC-NZ.RT11.10.EHZ</pickID>
          <phase>P</phase>
          <azimuth>231.0</azimuth>
          <distance>0.1799646848</distance>
          <timeResidual>0.23</timeResidual>
          <timeWeight>1.0</timeWeight>
          <creationInfo>
            <author>Hypo71</author>
            <creationTime>2016-05-18T06:44:48.299178Z</creationTime>
            <ns0:modificationTime>2016-05-18T06:44:48.29918Z</ns0:modificationTime>
          </creationInfo>
        </arrival>
        <arrival publicID="smi:de.erdbeben-in-bayern/arrival/20121028.193252.49-AIC-NZ.RT08.10.EHZ">
          <pickID>smi:de.erdbeben-in-bayern/pick/20121028.193252.49-AIC-NZ.RT08.10.EHZ</pickID>
          <phase>P</phase>
          <azimuth>227.0</azimuth>
          <distance>0.1853636253</distance>
          <timeResidual>0.26</timeResidual>
          <timeWeight>1.0</timeWeight>
          <creationInfo>
            <author>Hypo71</author>
            <creationTime>2016-05-18T06:44:48.299031Z</creationTime>
            <ns0:modificationTime>2016-05-18T06:44:48.299034Z</ns0:modificationTime>
          </creationInfo>
        </arrival>
        <arrival publicID="smi:de.erdbeben-in-bayern/arrival/20121028.193252.53-AIC-NZ.NS02.10.EHZ">
          <pickID>smi:de.erdbeben-in-bayern/pick/20121028.193252.53-AIC-NZ.NS02.10.EHZ</pickID>
          <phase>P</phase>
          <azimuth>248.0</azimuth>
          <distance>0.1790648614</distance>
          <timeResidual>0.41</timeResidual>
          <timeWeight>1.0</timeWeight>
          <creationInfo>
            <author>Hypo71</author>
            <creationTime>2016-05-18T06:44:48.299234Z</creationTime>
            <ns0:modificationTime>2016-05-18T06:44:48.299237Z</ns0:modificationTime>
          </creationInfo>
        </arrival>
        <arrival publicID="smi:de.erdbeben-in-bayern/arrival/20121028.193252.55-AIC-NZ.RT02.10.EHZ">
          <pickID>smi:de.erdbeben-in-bayern/pick/20121028.193252.55-AIC-NZ.RT02.10.EHZ</pickID>
          <phase>P</phase>
          <azimuth>233.0</azimuth>
          <distance>0.1925622127</distance>
          <timeResidual>0.2</timeResidual>
          <timeWeight>1.0</timeWeight>
          <creationInfo>
            <author>Hypo71</author>
            <creationTime>2016-05-18T06:44:48.298915Z</creationTime>
            <ns0:modificationTime>2016-05-18T06:44:48.298917Z</ns0:modificationTime>
          </creationInfo>
        </arrival>
        <arrival publicID="smi:de.erdbeben-in-bayern/arrival/20121028.193252.57-S-AIC-NZ.NS03.10.EHN">
          <pickID>smi:de.erdbeben-in-bayern/pick/20121028.193252.57-S-AIC-NZ.NS03.10.EHN</pickID>
          <phase>S</phase>
          <azimuth>254.0</azimuth>
          <distance>0.1340736902</distance>
          <timeResidual>-1.66</timeResidual>
          <timeWeight>1.0</timeWeight>
          <creationInfo>
            <author>Hypo71</author>
            <creationTime>2016-05-18T06:44:48.298674Z</creationTime>
            <ns0:modificationTime>2016-05-18T06:44:48.298677Z</ns0:modificationTime>
          </creationInfo>
        </arrival>
        <arrival publicID="smi:de.erdbeben-in-bayern/arrival/20121028.193252.63-AIC-NZ.RT06.10.EHZ">
          <pickID>smi:de.erdbeben-in-bayern/pick/20121028.193252.63-AIC-NZ.RT06.10.EHZ</pickID>
          <phase>P</phase>
          <azimuth>228.0</azimuth>
          <distance>0.1943618596</distance>
          <timeResidual>0.23</timeResidual>
          <timeWeight>1.0</timeWeight>
          <creationInfo>
            <author>Hypo71</author>
            <creationTime>2016-05-18T06:44:48.298972Z</creationTime>
            <ns0:modificationTime>2016-05-18T06:44:48.298974Z</ns0:modificationTime>
          </creationInfo>
        </arrival>
        <arrival publicID="smi:de.erdbeben-in-bayern/arrival/20121028.193252.74-AIC-NZ.RT05.10.EHZ">
          <pickID>smi:de.erdbeben-in-bayern/pick/20121028.193252.74-AIC-NZ.RT05.10.EHZ</pickID>
          <phase>P</phase>
          <azimuth>224.0</azimuth>
          <distance>0.2006606235</distance>
          <timeResidual>0.21</timeResidual>
          <timeWeight>1.0</timeWeight>
          <creationInfo>
            <author>Hypo71</author>
            <creationTime>2016-05-18T06:44:48.298942Z</creationTime>
            <ns0:modificationTime>2016-05-18T06:44:48.298945Z</ns0:modificationTime>
          </creationInfo>
        </arrival>
        <arrival publicID="smi:de.erdbeben-in-bayern/arrival/20121028.193252.77-AIC-NZ.NS09.10.EHZ">
          <pickID>smi:de.erdbeben-in-bayern/pick/20121028.193252.77-AIC-NZ.NS09.10.EHZ</pickID>
          <phase>P</phase>
          <azimuth>242.0</azimuth>
          <distance>0.1871632722</distance>
          <timeResidual>0.44</timeResidual>
          <timeWeight>1.0</timeWeight>
          <creationInfo>
            <author>Hypo71</author>
            <creationTime>2016-05-18T06:44:48.298820Z</creationTime>
            <ns0:modificationTime>2016-05-18T06:44:48.298822Z</ns0:modificationTime>
          </creationInfo>
        </arrival>
        <arrival publicID="smi:de.erdbeben-in-bayern/arrival/20121028.193252.77-AIC-NZ.RT09.10.EHZ">
          <pickID>smi:de.erdbeben-in-bayern/pick/20121028.193252.77-AIC-NZ.RT09.10.EHZ</pickID>
          <phase>P</phase>
          <azimuth>231.0</azimuth>
          <distance>0.1997608001</distance>
          <timeResidual>0.28</timeResidual>
          <timeWeight>1.0</timeWeight>
          <creationInfo>
            <author>Hypo71</author>
            <creationTime>2016-05-18T06:44:48.299059Z</creationTime>
            <ns0:modificationTime>2016-05-18T06:44:48.299062Z</ns0:modificationTime>
          </creationInfo>
        </arrival>
        <arrival publicID="smi:de.erdbeben-in-bayern/arrival/20121028.193253.02-AIC-NZ.RT01.10.EHZ">
          <pickID>smi:de.erdbeben-in-bayern/pick/20121028.193253.02-AIC-NZ.RT01.10.EHZ</pickID>
          <phase>P</phase>
          <azimuth>229.0</azimuth>
          <distance>0.2078592109</distance>
          <timeResidual>0.36</timeResidual>
          <timeWeight>1.0</timeWeight>
          <creationInfo>
            <author>Hypo71</author>
            <creationTime>2016-05-18T06:44:48.298887Z</creationTime>
            <ns0:modificationTime>2016-05-18T06:44:48.298889Z</ns0:modificationTime>
          </creationInfo>
        </arrival>
        <arrival publicID="smi:de.erdbeben-in-bayern/arrival/20121028.193253.21-S-AIC-NZ.RT12.10.EHN">
          <pickID>smi:de.erdbeben-in-bayern/pick/20121028.193253.21-S-AIC-NZ.RT12.10.EHN</pickID>
          <phase>S</phase>
          <azimuth>223.0</azimuth>
          <distance>0.1727660974</distance>
          <timeResidual>-2.54</timeResidual>
          <timeWeight>1.0</timeWeight>
          <creationInfo>
            <author>Hypo71</author>
            <creationTime>2016-05-18T06:44:48.299097Z</creationTime>
            <ns0:modificationTime>2016-05-18T06:44:48.299099Z</ns0:modificationTime>
          </creationInfo>
        </arrival>
        <arrival publicID="smi:de.erdbeben-in-bayern/arrival/20121028.193253.65-S-AIC-NZ.NS07.10.EHN">
          <pickID>smi:de.erdbeben-in-bayern/pick/20121028.193253.65-S-AIC-NZ.NS07.10.EHN</pickID>
          <phase>S</phase>
          <azimuth>237.0</azimuth>
          <distance>0.1367731604</distance>
          <timeResidual>-0.69</timeResidual>
          <timeWeight>1.0</timeWeight>
          <creationInfo>
            <author>Hypo71</author>
            <creationTime>2016-05-18T06:44:48.298743Z</creationTime>
            <ns0:modificationTime>2016-05-18T06:44:48.298746Z</ns0:modificationTime>
          </creationInfo>
        </arrival>
        <arrival publicID="smi:de.erdbeben-in-bayern/arrival/20121028.193253.74-S-AIC-NZ.NS08.10.EHN">
          <pickID>smi:de.erdbeben-in-bayern/pick/20121028.193253.74-S-AIC-NZ.NS08.10.EHN</pickID>
          <phase>S</phase>
          <azimuth>254.0</azimuth>
          <distance>0.1538698055</distance>
          <timeResidual>-1.23</timeResidual>
          <timeWeight>1.0</timeWeight>
          <creationInfo>
            <author>Hypo71</author>
            <creationTime>2016-05-18T06:44:48.298782Z</creationTime>
            <ns0:modificationTime>2016-05-18T06:44:48.298784Z</ns0:modificationTime>
          </creationInfo>
        </arrival>
        <arrival publicID="smi:de.erdbeben-in-bayern/arrival/20121028.193253.78-AIC-NZ.ARAZ.10.EHZ">
          <pickID>smi:de.erdbeben-in-bayern/pick/20121028.193253.78-AIC-NZ.ARAZ.10.EHZ</pickID>
          <phase>P</phase>
          <azimuth>235.0</azimuth>
          <distance>0.2429523245</distance>
          <timeResidual>0.44</timeResidual>
          <timeWeight>1.0</timeWeight>
          <creationInfo>
            <author>Hypo71</author>
            <creationTime>2016-05-18T06:44:48.298597Z</creationTime>
            <ns0:modificationTime>2016-05-18T06:44:48.2986Z</ns0:modificationTime>
          </creationInfo>
        </arrival>
        <arrival publicID="smi:de.erdbeben-in-bayern/arrival/20121028.193253.81-S-AIC-NZ.NS09.10.EHN">
          <pickID>smi:de.erdbeben-in-bayern/pick/20121028.193253.81-S-AIC-NZ.NS09.10.EHN</pickID>
          <phase>S</phase>
          <azimuth>242.0</azimuth>
          <distance>0.1871632722</distance>
          <timeResidual>-2.44</timeResidual>
          <timeWeight>1.0</timeWeight>
          <creationInfo>
            <author>Hypo71</author>
            <creationTime>2016-05-18T06:44:48.298820Z</creationTime>
            <ns0:modificationTime>2016-05-18T06:44:48.298822Z</ns0:modificationTime>
          </creationInfo>
        </arrival>
        <arrival publicID="smi:de.erdbeben-in-bayern/arrival/20121028.193253.89-S-AIC-NZ.HRRZ.10.EHN">
          <pickID>smi:de.erdbeben-in-bayern/pick/20121028.193253.89-S-AIC-NZ.HRRZ.10.EHN</pickID>
          <phase>S</phase>
          <azimuth>324.0</azimuth>
          <distance>0.1196765154</distance>
          <timeResidual>-0.08</timeResidual>
          <timeWeight>1.0</timeWeight>
          <creationInfo>
            <author>Hypo71</author>
            <creationTime>2016-05-18T06:44:48.298632Z</creationTime>
            <ns0:modificationTime>2016-05-18T06:44:48.298635Z</ns0:modificationTime>
          </creationInfo>
        </arrival>
        <arrival publicID="smi:de.erdbeben-in-bayern/arrival/20121028.193255.69-S-AIC-NZ.WPRZ.10.EHN">
          <pickID>smi:de.erdbeben-in-bayern/pick/20121028.193255.69-S-AIC-NZ.WPRZ.10.EHN</pickID>
          <phase>S</phase>
          <azimuth>259.0</azimuth>
          <distance>0.1691668037</distance>
          <timeResidual>-0.01</timeResidual>
          <timeWeight>1.0</timeWeight>
          <creationInfo>
            <author>Hypo71</author>
            <creationTime>2016-05-18T06:44:48.299137Z</creationTime>
            <ns0:modificationTime>2016-05-18T06:44:48.29914Z</ns0:modificationTime>
          </creationInfo>
        </arrival>
