<?xml version='1.0' encoding='utf-8'?>
<q:quakeml xmlns:edb="http://erdbeben-in-bayern.de/xmlns/0.1" xmlns:ns0="http://geofon.gfz-potsdam.de/ns/seiscomp3-schema/0.7" xmlns:ns1="http://erdbeben-in-bayern.de/xmlns/0.1" xmlns:q="http://quakeml.org/xmlns/quakeml/1.2" xmlns="http://quakeml.org/xmlns/bed/1.2">
  <eventParameters publicID="smi:de.erdbeben-in-bayern/catalog/20170321023152">
    <creationInfo>
      <creationTime>2017-03-21T02:34:09.967416Z</creationTime>
      <version>ObsPyck 0.4.1.post0, ObsPy 1.0.3</version>
    </creationInfo>
    <event publicID="smi:de.erdbeben-in-bayern/event/20170321023152">
      <preferredOriginID>smi:de.erdbeben-in-bayern/origin/Origin/20160427034637.517899.7070</preferredOriginID>
      <preferredMagnitudeID>smi:de.erdbeben-in-bayern/magnitude/Origin/20160427034637.517899.7070/netMag.M</preferredMagnitudeID>
      <description>
        <text>Rotokawa</text>
        <type>region name</type>
      </description>
      <creationInfo>
        <agencyID>SORA</agencyID>
        <author>scevent@hase</author>
        <creationTime>2016-04-27T03:44:56.914929Z</creationTime>
        <ns0:modificationTime>2016-04-27T03:48:59.544418Z</ns0:modificationTime>
      </creationInfo>
      <origin publicID="smi:de.erdbeben-in-bayern/origin/Origin/20160427034637.517899.7070">
        <time>
          <value>2014-12-04T17:56:56.840000Z</value>
        </time>
        <latitude>
          <value>-38.62033333</value>
          <uncertainty>0.5656854249</uncertainty>
        </latitude>
        <longitude>
          <value>176.1968333</value>
          <uncertainty>0.5656854249</uncertainty>
        </longitude>
        <depth>
          <value>4290.0</value>
          <uncertainty>900.0</uncertainty>
        </depth>
        <methodID>smi:de.erdbeben-in-bayern/location_method/Hypo71</methodID>
        <earthModelID>smi:de.erdbeben-in-bayern/earth_model/ROTNGA</earthModelID>
        <quality>
          <associatedPhaseCount>21</associatedPhaseCount>
          <usedPhaseCount>21</usedPhaseCount>
          <usedStationCount>19</usedStationCount>
          <depthPhaseCount>0</depthPhaseCount>
          <standardError>0.22</standardError>
          <azimuthalGap>74.0</azimuthalGap>
          <groundTruthLevel>B</groundTruthLevel>
          <minimumDistance>0.003599293696</minimumDistance>
          <maximumDistance>0.1970613298</maximumDistance>
          <medianDistance>6.1</medianDistance>
        </quality>
        <evaluationMode>automatic</evaluationMode>
        <creationInfo>
          <agencyID>SORA</agencyID>
          <author>screloc@hase</author>
          <creationTime>2016-04-27T03:46:37.518113Z</creationTime>
        </creationInfo>
        <arrival publicID="smi:de.erdbeben-in-bayern/arrival/20141204.175658.39-AIC-NZ.RT18.10.EHZ">
          <pickID>smi:de.erdbeben-in-bayern/pick/20141204.175658.39-AIC-NZ.RT18.10.EHZ</pickID>
          <phase>P</phase>
          <azimuth>335.0</azimuth>
          <distance>0.01439717478</distance>
          <timeResidual>-0.15</timeResidual>
          <timeWeight>1.0</timeWeight>
          <creationInfo>
            <author>Hypo71</author>
            <creationTime>2016-04-27T03:46:37.518528Z</creationTime>
            <ns0:modificationTime>2016-04-27T03:46:37.518534Z</ns0:modificationTime>
          </creationInfo>
        </arrival>
        <arrival publicID="smi:de.erdbeben-in-bayern/arrival/20141204.175658.40-AIC-NZ.RT14.10.EHZ">
          <pickID>smi:de.erdbeben-in-bayern/pick/20141204.175658.40-AIC-NZ.RT14.10.EHZ</pickID>
          <phase>P</phase>
          <azimuth>335.0</azimuth>
          <distance>0.003599293696</distance>
          <timeResidual>-0.09</timeResidual>
          <timeWeight>1.0</timeWeight>
          <creationInfo>
            <author>Hypo71</author>
            <creationTime>2016-04-27T03:46:37.518380Z</creationTime>
            <ns0:modificationTime>2016-04-27T03:46:37.518386Z</ns0:modificationTime>
          </creationInfo>
        </arrival>
        <arrival publicID="smi:de.erdbeben-in-bayern/arrival/20141204.175658.44-AIC-NZ.RT19.10.EHZ">
          <pickID>smi:de.erdbeben-in-bayern/pick/20141204.175658.44-AIC-NZ.RT19.10.EHZ</pickID>
          <phase>P</phase>
          <azimuth>29.0</azimuth>
          <distance>0.01349735136</distance>
          <timeResidual>-0.08</timeResidual>
          <timeWeight>1.0</timeWeight>
          <creationInfo>
            <author>Hypo71</author>
            <creationTime>2016-04-27T03:46:37.518592Z</creationTime>
            <ns0:modificationTime>2016-04-27T03:46:37.518598Z</ns0:modificationTime>
          </creationInfo>
        </arrival>
        <arrival publicID="smi:de.erdbeben-in-bayern/arrival/20141204.175658.51-AIC-NZ.RT05.10.EHZ">
          <pickID>smi:de.erdbeben-in-bayern/pick/20141204.175658.51-AIC-NZ.RT05.10.EHZ</pickID>
          <phase>P</phase>
          <azimuth>184.0</azimuth>
          <distance>0.01169770451</distance>
          <timeResidual>-0.03</timeResidual>
          <timeWeight>1.0</timeWeight>
          <creationInfo>
            <author>Hypo71</author>
            <creationTime>2016-04-27T03:46:37.518249Z</creationTime>
            <ns0:modificationTime>2016-04-27T03:46:37.518257Z</ns0:modificationTime>
          </creationInfo>
        </arrival>
        <arrival publicID="smi:de.erdbeben-in-bayern/arrival/20141204.175658.62-AIC-NZ.RT12.10.EHZ">
          <pickID>smi:de.erdbeben-in-bayern/pick/20141204.175658.62-AIC-NZ.RT12.10.EHZ</pickID>
          <phase>P</phase>
          <azimuth>73.0</azimuth>
          <distance>0.02159576217</distance>
          <timeResidual>-0.05</timeResidual>
          <timeWeight>1.0</timeWeight>
          <creationInfo>
            <author>Hypo71</author>
            <creationTime>2016-04-27T03:46:37.518724Z</creationTime>
            <ns0:modificationTime>2016-04-27T03:46:37.518729Z</ns0:modificationTime>
          </creationInfo>
        </arrival>
        <arrival publicID="smi:de.erdbeben-in-bayern/arrival/20141204.175658.63-AIC-NZ.RT12.10.EHZ">
          <pickID>smi:de.erdbeben-in-bayern/pick/20141204.175658.63-AIC-NZ.RT12.10.EHZ</pickID>
          <phase>P</phase>
          <azimuth>73.0</azimuth>
          <distance>0.02159576217</distance>
          <timeResidual>-0.05</timeResidual>
          <timeWeight>1.0</timeWeight>
          <creationInfo>
            <author>Hypo71</author>
            <creationTime>2016-04-27T03:46:37.518724Z</creationTime>
            <ns0:modificationTime>2016-04-27T03:46:37.518729Z</ns0:modificationTime>
          </creationInfo>
        </arrival>
        <arrival publicID="smi:de.erdbeben-in-bayern/arrival/20141204.175658.70-AIC-NZ.RT01.10.EHZ">
          <pickID>smi:de.erdbeben-in-bayern/pick/20141204.175658.70-AIC-NZ.RT01.10.EHZ</pickID>
          <phase>P</phase>
          <azimuth>264.0</azimuth>
          <distance>0.01979611533</distance>
          <timeResidual>0.07</timeResidual>
          <timeWeight>1.0</timeWeight>
          <creationInfo>
            <author>Hypo71</author>
            <creationTime>2016-04-27T03:46:37.518455Z</creationTime>
            <ns0:modificationTime>2016-04-27T03:46:37.518461Z</ns0:modificationTime>
          </creationInfo>
        </arrival>
        <arrival publicID="smi:de.erdbeben-in-bayern/arrival/20141204.175658.70-AIC-NZ.RT21.10.EHZ">
          <pickID>smi:de.erdbeben-in-bayern/pick/20141204.175658.70-AIC-NZ.RT21.10.EHZ</pickID>
          <phase>P</phase>
          <azimuth>110.0</azimuth>
          <distance>0.02339540902</distance>
          <timeResidual>0.09</timeResidual>
          <timeWeight>1.0</timeWeight>
          <creationInfo>
            <author>Hypo71</author>
            <creationTime>2016-04-27T03:46:37.518661Z</creationTime>
            <ns0:modificationTime>2016-04-27T03:46:37.518667Z</ns0:modificationTime>
          </creationInfo>
        </arrival>
        <arrival publicID="smi:de.erdbeben-in-bayern/arrival/20141204.175658.71-AIC-NZ.RT17.10.EHZ">
          <pickID>smi:de.erdbeben-in-bayern/pick/20141204.175658.71-AIC-NZ.RT17.10.EHZ</pickID>
          <phase>P</phase>
          <azimuth>60.0</azimuth>
          <distance>0.02699470272</distance>
          <timeResidual>-0.03</timeResidual>
          <timeWeight>1.0</timeWeight>
          <creationInfo>
            <author>Hypo71</author>
            <creationTime>2016-04-27T03:46:37.518803Z</creationTime>
            <ns0:modificationTime>2016-04-27T03:46:37.518808Z</ns0:modificationTime>
          </creationInfo>
        </arrival>
        <arrival publicID="smi:de.erdbeben-in-bayern/arrival/20141204.175659.10-AIC-NZ.NS14.10.EHZ">
          <pickID>smi:de.erdbeben-in-bayern/pick/20141204.175659.10-AIC-NZ.NS14.10.EHZ</pickID>
          <phase>P</phase>
          <azimuth>0.0</azimuth>
          <distance>0.05398940544</distance>
          <timeResidual>-0.17</timeResidual>
          <timeWeight>1.0</timeWeight>
          <creationInfo>
            <author>Hypo71</author>
            <creationTime>2016-04-27T03:46:37.518994Z</creationTime>
            <ns0:modificationTime>2016-04-27T03:46:37.518999Z</ns0:modificationTime>
          </creationInfo>
        </arrival>
        <arrival publicID="smi:de.erdbeben-in-bayern/arrival/20141204.175659.28-AIC-NZ.NS11.10.EHZ">
          <pickID>smi:de.erdbeben-in-bayern/pick/20141204.175659.28-AIC-NZ.NS11.10.EHZ</pickID>
          <phase>P</phase>
          <azimuth>355.0</azimuth>
          <distance>0.05488922886</distance>
          <timeResidual>-0.04</timeResidual>
          <timeWeight>1.0</timeWeight>
          <creationInfo>
            <author>Hypo71</author>
            <creationTime>2016-04-27T03:46:37.519054Z</creationTime>
            <ns0:modificationTime>2016-04-27T03:46:37.519059Z</ns0:modificationTime>
          </creationInfo>
        </arrival>
        <arrival publicID="smi:de.erdbeben-in-bayern/arrival/20141204.175659.32-AIC-NZ.THQ2.10.EHZ">
          <pickID>smi:de.erdbeben-in-bayern/pick/20141204.175659.32-AIC-NZ.THQ2.10.EHZ</pickID>
          <phase>P</phase>
          <azimuth>204.0</azimuth>
          <distance>0.05218975859</distance>
          <timeResidual>0.04</timeResidual>
          <timeWeight>1.0</timeWeight>
          <creationInfo>
            <author>Hypo71</author>
            <creationTime>2016-04-27T03:46:37.518868Z</creationTime>
            <ns0:modificationTime>2016-04-27T03:46:37.518873Z</ns0:modificationTime>
          </creationInfo>
        </arrival>
        <arrival publicID="smi:de.erdbeben-in-bayern/arrival/20141204.175659.35-AIC-NZ.NS13.10.EHZ">
          <pickID>smi:de.erdbeben-in-bayern/pick/20141204.175659.35-AIC-NZ.NS13.10.EHZ</pickID>
          <phase>P</phase>
          <azimuth>352.0</azimuth>
          <distance>0.0674867568</distance>
          <timeResidual>-0.21</timeResidual>
          <timeWeight>1.0</timeWeight>
          <creationInfo>
            <author>Hypo71</author>
            <creationTime>2016-04-27T03:46:37.519212Z</creationTime>
            <ns0:modificationTime>2016-04-27T03:46:37.519217Z</ns0:modificationTime>
          </creationInfo>
        </arrival>
        <arrival publicID="smi:de.erdbeben-in-bayern/arrival/20141204.175659.47-AIC-NZ.NS07.10.EHZ">
          <pickID>smi:de.erdbeben-in-bayern/pick/20141204.175659.47-AIC-NZ.NS07.10.EHZ</pickID>
          <phase>P</phase>
          <azimuth>22.0</azimuth>
          <distance>0.0638874631</distance>
          <timeResidual>0.0</timeResidual>
          <timeWeight>1.0</timeWeight>
          <creationInfo>
            <author>Hypo71</author>
            <creationTime>2016-04-27T03:46:37.519148Z</creationTime>
            <ns0:modificationTime>2016-04-27T03:46:37.519155Z</ns0:modificationTime>
          </creationInfo>
        </arrival>
        <arrival publicID="smi:de.erdbeben-in-bayern/arrival/20141204.175659.48-AIC-NZ.ARAZ.10.EHZ">
          <pickID>smi:de.erdbeben-in-bayern/pick/20141204.175659.48-AIC-NZ.ARAZ.10.EHZ</pickID>
          <phase>P</phase>
          <azimuth>263.0</azimuth>
          <distance>0.0602881694</distance>
          <timeResidual>0.04</timeResidual>
          <timeWeight>1.0</timeWeight>
          <creationInfo>
            <author>Hypo71</author>
            <creationTime>2016-04-27T03:46:37.518933Z</creationTime>
            <ns0:modificationTime>2016-04-27T03:46:37.518939Z</ns0:modificationTime>
          </creationInfo>
        </arrival>
        <arrival publicID="smi:de.erdbeben-in-bayern/arrival/20141204.175700.13-AIC-NZ.WPRZ.10.EHZ">
          <pickID>smi:de.erdbeben-in-bayern/pick/20141204.175700.13-AIC-NZ.WPRZ.10.EHZ</pickID>
          <phase>P</phase>
          <azimuth>345.0</azimuth>
          <distance>0.1043795172</distance>
          <timeResidual>-0.29</timeResidual>
          <timeWeight>1.0</timeWeight>
          <creationInfo>
            <author>Hypo71</author>
            <creationTime>2016-04-27T03:46:37.519399Z</creationTime>
            <ns0:modificationTime>2016-04-27T03:46:37.519405Z</ns0:modificationTime>
          </creationInfo>
        </arrival>
        <arrival publicID="smi:de.erdbeben-in-bayern/arrival/20141204.175700.44-AIC-NZ.ALRZ.10.EHZ">
          <pickID>smi:de.erdbeben-in-bayern/pick/20141204.175700.44-AIC-NZ.ALRZ.10.EHZ</pickID>
          <phase>P</phase>
          <azimuth>63.0</azimuth>
          <distance>0.1286747496</distance>
          <timeResidual>-0.43</timeResidual>
          <timeWeight>1.0</timeWeight>
          <creationInfo>
            <author>Hypo71</author>
            <creationTime>2016-04-27T03:46:37.519531Z</creationTime>
            <ns0:modificationTime>2016-04-27T03:46:37.519537Z</ns0:modificationTime>
          </creationInfo>
        </arrival>
        <arrival publicID="smi:de.erdbeben-in-bayern/arrival/20141204.175700.67-AIC-NZ.NS12.10.EHZ">
          <pickID>smi:de.erdbeben-in-bayern/pick/20141204.175700.67-AIC-NZ.NS12.10.EHZ</pickID>
          <phase>P</phase>
          <azimuth>356.0</azimuth>
          <distance>0.07468534419</distance>
          <timeResidual>0.96</timeResidual>
          <timeWeight>1.0</timeWeight>
          <creationInfo>
            <author>Hypo71</author>
            <creationTime>2016-04-27T03:46:37.519273Z</creationTime>
            <ns0:modificationTime>2016-04-27T03:46:37.519278Z</ns0:modificationTime>
          </creationInfo>
        </arrival>
        <arrival publicID="smi:de.erdbeben-in-bayern/arrival/20141204.175700.95-AIC-NZ.NS03.10.EHZ">
          <pickID>smi:de.erdbeben-in-bayern/pick/20141204.175700.95-AIC-NZ.NS03.10.EHZ</pickID>
          <phase>P</phase>
          <azimuth>6.0</azimuth>
          <distance>0.09718092979</distance>
          <timeResidual>0.77</timeResidual>
          <timeWeight>1.0</timeWeight>
          <creationInfo>
            <author>Hypo71</author>
            <creationTime>2016-04-27T03:46:37.519333Z</creationTime>
            <ns0:modificationTime>2016-04-27T03:46:37.519339Z</ns0:modificationTime>
          </creationInfo>
        </arrival>
        <arrival publicID="smi:de.erdbeben-in-bayern/arrival/20141204.175702.24-AIC-NZ.NS01.10.EHZ">
          <pickID>smi:de.erdbeben-in-bayern/pick/20141204.175702.24-AIC-NZ.NS01.10.EHZ</pickID>
          <phase>P</phase>
          <azimuth>352.0</azimuth>
          <distance>0.1133777514</distance>
          <timeResidual>1.72</timeResidual>
          <timeWeight>1.0</timeWeight>
          <creationInfo>
            <author>Hypo71</author>
            <creationTime>2016-04-27T03:46:37.519469Z</creationTime>
            <ns0:modificationTime>2016-04-27T03:46:37.519475Z</ns0:modificationTime>
          </creationInfo>
        </arrival>
        <arrival publicID="smi:de.erdbeben-in-bayern/arrival/20141204.175704.48-AIC-NZ.PRRZ.10.EHZ">
          <pickID>smi:de.erdbeben-in-bayern/pick/20141204.175704.48-AIC-NZ.PRRZ.10.EHZ</pickID>
          <phase>P</phase>
          <azimuth>51.0</azimuth>
          <distance>0.1970613298</distance>
          <timeResidual>2.3</timeResidual>
          <timeWeight>1.0</timeWeight>
          <creationInfo>
            <author>Hypo71</author>
            <creationTime>2016-04-27T03:46:37.519597Z</creationTime>
            <ns0:modificationTime>2016-04-27T03:46:37.519602Z</ns0:modificationTime>
          </creationInfo>
        </arrival>
      </origin>
      <magnitude publicID="smi:de.erdbeben-in-bayern/magnitude/Origin/20160427034637.517899.7070/netMag.M">
        <mag>
          <value>1.874454923</value>
        </mag>
        <type>M</type>
        <methodID>smi:de.erdbeben-in-bayern/magnitude_method/weighted_average</methodID>
        <stationCount>13</stationCount>
        <creationInfo>
          <agencyID>SORA</agencyID>
          <author>scmag@hase</author>
          <creationTime>2016-04-27T03:48:09.183765Z</creationTime>
        </creationInfo>
      </magnitude>
      <stationMagnitude publicID="smi:de.erdbeben-in-bayern/station_magnitude/Origin/20160427034637.517899.7070/staMag.MLv/NZ.ALRZ">
        <originID>smi:de.erdbeben-in-bayern/origin/Origin/20160427034637.517899.7070</originID>
        <mag>
          <value>1.691229342</value>
        </mag>
        <type>MLv</type>
        <amplitudeID>smi:de.erdbeben-in-bayern/amplitude/20141204.175700.44-AIC-NZ.ALRZ.10.EHZ.MLv</amplitudeID>
        <waveformID channelCode="EHZ" locationCode="10" networkCode="NZ" stationCode="ALRZ"></waveformID>
        <creationInfo>
          <agencyID>SORA</agencyID>
          <author>scmag@hase</author>
          <creationTime>2016-04-27T03:48:09.181209Z</creationTime>
        </creationInfo>
      </stationMagnitude>
      <stationMagnitude publicID="smi:de.erdbeben-in-bayern/station_magnitude/Origin/20160427034637.517899.7070/staMag.MLv/NZ.ARAZ">
        <originID>smi:de.erdbeben-in-bayern/origin/Origin/20160427034637.517899.7070</originID>
        <mag>
          <value>1.681150929</value>
        </mag>
        <type>MLv</type>
        <amplitudeID>smi:de.erdbeben-in-bayern/amplitude/20141204.175659.48-AIC-NZ.ARAZ.10.EHZ.MLv</amplitudeID>
        <waveformID channelCode="EHZ" locationCode="10" networkCode="NZ" stationCode="ARAZ"></waveformID>
        <creationInfo>
          <agencyID>SORA</agencyID>
          <author>scmag@hase</author>
          <creationTime>2016-04-27T03:48:09.181450Z</creationTime>
        </creationInfo>
      </stationMagnitude>
      <stationMagnitude publicID="smi:de.erdbeben-in-bayern/station_magnitude/Origin/20160427034637.517899.7070/staMag.MLv/NZ.NS01">
        <originID>smi:de.erdbeben-in-bayern/origin/Origin/20160427034637.517899.7070</originID>
        <mag>
          <value>1.84184189</value>
        </mag>
        <type>MLv</type>
        <amplitudeID>smi:de.erdbeben-in-bayern/amplitude/20141204.175702.24-AIC-NZ.NS01.10.EHZ.MLv</amplitudeID>
        <waveformID channelCode="EHZ" locationCode="10" networkCode="NZ" stationCode="NS01"></waveformID>
        <creationInfo>
          <agencyID>SORA</agencyID>
          <author>scmag@hase</author>
          <creationTime>2016-04-27T03:48:09.181631Z</creationTime>
        </creationInfo>
      </stationMagnitude>
      <stationMagnitude publicID="smi:de.erdbeben-in-bayern/station_magnitude/Origin/20160427034637.517899.7070/staMag.MLv/NZ.NS03">
        <originID>smi:de.erdbeben-in-bayern/origin/Origin/20160427034637.517899.7070</originID>
        <mag>
          <value>2.305375413</value>
        </mag>
        <type>MLv</type>
        <amplitudeID>smi:de.erdbeben-in-bayern/amplitude/20141204.175700.95-AIC-NZ.NS03.10.EHZ.MLv</amplitudeID>
        <waveformID channelCode="EHZ" locationCode="10" networkCode="NZ" stationCode="NS03"></waveformID>
        <creationInfo>
          <agencyID>SORA</agencyID>
          <author>scmag@hase</author>
          <creationTime>2016-04-27T03:48:09.181756Z</creationTime>
        </creationInfo>
      </stationMagnitude>
      <stationMagnitude publicID="smi:de.erdbeben-in-bayern/station_magnitude/Origin/20160427034637.517899.7070/staMag.MLv/NZ.NS07">
