<?xml version="1.0" encoding="utf-8"?>

<ns0:quakeml xmlns:ns0="http://quakeml.org/xmlns/quakeml/1.2" xmlns="http://quakeml.org/xmlns/bed/1.2">
  <eventParameters publicID="smi:local/acaa6837-ca2a-49a9-a6b2-4f0816ecda34">
    <event publicID="smi:de.erdbeben-in-bayern/event/20130410002223/1">
      <creationInfo>
        <agencyID>Erdbebendienst Bayern</agencyID>
        <agencyURI>smi:de.erdbeben-in-bayern/agency</agencyURI>
        <author>obspyck</author>
      </creationInfo>
      <origin publicID="smi:local/8d18eb67-315b-4b4c-9d42-04c53832c7db">
        <time>
          <value>2010-10-18T23:16:25.385698Z</value>
        </time>
        <latitude>
          <value>48.0461407124</value>
        </latitude>
        <longitude>
          <value>11.6419160361</value>
        </longitude>
        <depth>
          <value>4781.348</value>
          <uncertainty>658.503327485</uncertainty>
        </depth>
        <depthType>from location</depthType>
        <methodID>smi:de.erdbeben-in-bayern/location_method/nlloc/1</methodID>
        <earthModelID>smi:de.erdbeben-in-bayern/earth_model/UH</earthModelID>
        <quality>
          <usedPhaseCount>8</usedPhaseCount>
          <standardError>0.031118</standardError>
          <azimuthalGap>157.0</azimuthalGap>
          <minimumDistance>66.72</minimumDistance>
          <maximumDistance>353.97</maximumDistance>
          <medianDistance>192.41</medianDistance>
        </quality>
        <originUncertainty>
          <preferredDescription>uncertainty ellipse</preferredDescription>
          <minHorizontalUncertainty>383.338143182</minHorizontalUncertainty>
          <maxHorizontalUncertainty>750.05552581</maxHorizontalUncertainty>
          <azimuthMaxHorizontalUncertainty>90.0</azimuthMaxHorizontalUncertainty>
        </originUncertainty>
        <arrival publicID="smi:de.erdbeben-in-bayern/arrival/3fe369f4-641d-4a73-b387-868f6871d495">
          <pickID>smi:de.erdbeben-in-bayern/pick/20130409102542/7</pickID>
          <phase>P</phase>
          <azimuth>193.1</azimuth>
          <distance>187.97</distance>
          <takeoffAngle>
            <value>155.9</value>
          </takeoffAngle>
          <timeResidual>-0.0255</timeResidual>
          <timeWeight>1.0531</timeWeight>
        </arrival>
        <arrival publicID="smi:de.erdbeben-in-bayern/arrival/b8c7ebef-694b-4811-b8a7-a965eda1e1b1">
          <pickID>smi:de.erdbeben-in-bayern/pick/20130409102542/6</pickID>
          <phase>S</phase>
          <azimuth>193.3</azimuth>
          <distance>187.97</distance>
          <takeoffAngle>
            <value>158.9</value>
          </takeoffAngle>
          <timeResidual>-0.0522</timeResidual>
          <timeWeight>1.0531</timeWeight>
        </arrival>
        <arrival publicID="smi:de.erdbeben-in-bayern/arrival/a125d2ee-544d-49e9-a934-ba001eb1cd7f">
          <pickID>smi:de.erdbeben-in-bayern/pick/20130409102542/4</pickID>
          <phase>P</phase>
          <azimuth>65.0</azimuth>
          <distance>66.72</distance>
          <takeoffAngle>
            <value>138.2</value>
          </takeoffAngle>
          <timeResidual>0.0024</timeResidual>
          <timeWeight>1.6202</timeWeight>
        </arrival>
        <arrival publicID="smi:de.erdbeben-in-bayern/arrival/0eeaecec-98e7-4090-a3e0-846e75b5584c">
          <pickID>smi:de.erdbeben-in-bayern/pick/20130409102542/5</pickID>
          <phase>S</phase>
          <azimuth>64.1</azimuth>
          <distance>66.72</distance>
          <takeoffAngle>
            <value>143.2</value>
          </takeoffAngle>
          <timeResidual>0.0101</timeResidual>
          <timeWeight>1.0531</timeWeight>
        </arrival>
        <arrival publicID="smi:de.erdbeben-in-bayern/arrival/8e0e31f6-898f-436c-a82a-5ed30c24cfd2">
          <pickID>smi:de.erdbeben-in-bayern/pick/7bf5bd04-07cf-47e2-8684-05d81be00ca2</pickID>
          <phase>P</phase>
          <azimuth>199.0</azimuth>
          <distance>196.85</distance>
          <takeoffAngle>
            <value>132.8</value>
          </takeoffAngle>
          <timeResidual>-0.0008</timeResidual>
          <timeWeight>0.8685</timeWeight>
        </arrival>
        <arrival publicID="smi:de.erdbeben-in-bayern/arrival/d069b0be-a454-4d7b-9887-5b147bb399cc">
          <pickID>smi:de.erdbeben-in-bayern/pick/20130409102542/1</pickID>
          <phase>S</phase>
          <azimuth>199.4</azimuth>
          <distance>196.85</distance>
          <takeoffAngle>
            <value>138.8</value>
          </takeoffAngle>
          <timeResidual>0.0666</timeResidual>
          <timeWeight>0.8685</timeWeight>
        </arrival>
        <arrival publicID="smi:de.erdbeben-in-bayern/arrival/a5478987-5e56-4d10-b87c-11558d3aa488">
          <pickID>smi:de.erdbeben-in-bayern/pick/20130409102542/3</pickID>
          <phase>P</phase>
          <azimuth>352.7</azimuth>
          <distance>353.97</distance>
          <takeoffAngle>
            <value>132.5</value>
          </takeoffAngle>
          <timeResidual>-0.0013</timeResidual>
          <timeWeight>0.8685</timeWeight>
        </arrival>
        <arrival publicID="smi:de.erdbeben-in-bayern/arrival/da3678dd-73cf-425e-81df-f05938c218dc">
          <pickID>smi:de.erdbeben-in-bayern/pick/20130409102542/2</pickID>
          <phase>S</phase>
          <azimuth>352.3</azimuth>
          <distance>353.97</distance>
          <takeoffAngle>
            <value>138.8</value>
          </takeoffAngle>
          <timeResidual>0.0187</timeResidual>
          <timeWeight>0.6149</timeWeight>
        </arrival>
      </origin>
      <pick publicID="smi:de.erdbeben-in-bayern/pick/20130410002223/0">
        <time>
          <value>2010-10-18T23:16:26.970000Z</value>
          <lowerUncertainty>0.025</lowerUncertainty>
          <upperUncertainty>0.02</upperUncertainty>
        </time>
        <waveformID channelCode="EHZ" locationCode="" networkCode="BW" stationCode="DHFO"></waveformID>
        <phaseHint>P</phaseHint>
      </pick>
      <pick publicID="smi:de.erdbeben-in-bayern/pick/20130410002223/1">
        <time>
          <value>2010-10-18T23:16:28.420000Z</value>
          <lowerUncertainty>0.025</lowerUncertainty>
          <upperUncertainty>0.02</upperUncertainty>
        </time>
        <waveformID channelCode="EHE" locationCode="" networkCode="BW" stationCode="DHFO"></waveformID>
        <phaseHint>S</phaseHint>
      </pick>
      <pick publicID="smi:de.erdbeben-in-bayern/pick/20130410002223/2">
        <time>
          <value>2010-10-18T23:16:28.319999Z</value>
          <lowerUncertainty>0.03</lowerUncertainty>
          <upperUncertainty>0.025</upperUncertainty>
        </time>
        <waveformID channelCode="EHN" locationCode="" networkCode="BW" stationCode="UH1"></waveformID>
        <phaseHint>S</phaseHint>
      </pick>
      <pick publicID="smi:de.erdbeben-in-bayern/pick/20130410002223/3">
        <time>
          <value>2010-10-18T23:16:26.940000Z</value>
          <lowerUncertainty>0.02</lowerUncertainty>
          <upperUncertainty>0.025</upperUncertainty>
        </time>
        <waveformID channelCode="EHZ" locationCode="" networkCode="BW" stationCode="UH1"></waveformID>
        <phaseHint>P</phaseHint>
      </pick>
      <pick publicID="smi:de.erdbeben-in-bayern/pick/20130410002223/4">
        <time>
          <value>2010-10-18T23:16:26.865000Z</value>
          <lowerUncertainty>0.02</lowerUncertainty>
          <upperUncertainty>0.01</upperUncertainty>
        </time>
        <waveformID channelCode="EHZ" locationCode="" networkCode="BW" stationCode="UH2"></waveformID>
        <phaseHint>P</phaseHint>
      </pick>
      <pick publicID="smi:de.erdbeben-in-bayern/pick/20130410002223/5">
        <time>
          <value>2010-10-18T23:16:28.160000Z</value>
          <lowerUncertainty>0.02</lowerUncertainty>
          <upperUncertainty>0.02</upperUncertainty>
        </time>
        <waveformID channelCode="EHE" locationCode="" networkCode="BW" stationCode="UH2"></waveformID>
        <phaseHint>S</phaseHint>
      </pick>
      <pick publicID="smi:de.erdbeben-in-bayern/pick/20130410002223/6">
        <time>
          <value>2010-10-18T23:16:27.845000Z</value>
          <lowerUncertainty>0.015</lowerUncertainty>
          <upperUncertainty>0.025</upperUncertainty>
        </time>
        <waveformID channelCode="EHN" locationCode="" networkCode="BW" stationCode="UH3"></waveformID>
        <phaseHint>S</phaseHint>
      </pick>
      <pick publicID="smi:de.erdbeben-in-bayern/pick/20130410002223/7">
        <time>
          <value>2010-10-18T23:16:26.710000Z</value>
          <lowerUncertainty>0.02</lowerUncertainty>
          <upperUncertainty>0.02</upperUncertainty>
        </time>
        <waveformID channelCode="EHZ" locationCode="" networkCode="BW" stationCode="UH3"></waveformID>
        <phaseHint>P</phaseHint>
      </pick>
    </event>
  </eventParameters>
</ns0:quakeml>