<?xml version='1.0' encoding='utf-8'?>
<q:quakeml xmlns:edb="http://erdbeben-in-bayern.de/xmlns/0.1" xmlns:q="http://quakeml.org/xmlns/quakeml/1.2" xmlns:sc3="http://geofon.gfz-potsdam.de/ns/seiscomp3-schema/0.7" xmlns="http://quakeml.org/xmlns/bed/1.2">
  <eventParameters publicID="smi:de.erdbeben-in-bayern/catalog/20170320030356">
    <creationInfo>
      <creationTime>2017-03-20T03:04:33.983110Z</creationTime>
      <version>ObsPyck 0.4.1.post0, ObsPy 1.0.3</version>
    </creationInfo>
    <event publicID="smi:de.erdbeben-in-bayern/event/20170320030356">
      <preferredOriginID>smi:de.erdbeben-in-bayern/origin/Origin/20160113013658.125122.3527</preferredOriginID>
      <preferredMagnitudeID>smi:de.erdbeben-in-bayern/magnitude/Origin/20160113013658.125122.3527/netMag.M</preferredMagnitudeID>
      <description>
        <text>Ngatamariki</text>
        <type>region name</type>
      </description>
      <creationInfo>
        <agencyID>SORA</agencyID>
        <author>scevent@hase</author>
        <creationTime>2016-01-13T01:36:45.847747Z</creationTime>
        <sc3:modificationTime>2016-01-13T01:37:59.64551Z</sc3:modificationTime>
      </creationInfo>
      <origin publicID="smi:de.erdbeben-in-bayern/origin/Origin/20160113013658.125122.3527">
        <time>
          <value>2015-07-06T09:37:03.140000Z</value>
        </time>
        <latitude>
          <value>-38.53816667</value>
          <uncertainty>0.2828427125</uncertainty>
        </latitude>
        <longitude>
          <value>176.1791667</value>
          <uncertainty>0.2828427125</uncertainty>
        </longitude>
        <depth>
          <value>1000.0</value>
          <uncertainty>300.0</uncertainty>
        </depth>
        <methodID>smi:de.erdbeben-in-bayern/location_method/Hypo71</methodID>
        <earthModelID>smi:de.erdbeben-in-bayern/earth_model/TVZ</earthModelID>
        <quality>
          <associatedPhaseCount>23</associatedPhaseCount>
          <usedPhaseCount>23</usedPhaseCount>
          <usedStationCount>22</usedStationCount>
          <depthPhaseCount>0</depthPhaseCount>
          <standardError>0.26</standardError>
          <azimuthalGap>124.0</azimuthalGap>
          <groundTruthLevel>B</groundTruthLevel>
          <minimumDistance>0.008998234239</minimumDistance>
          <maximumDistance>0.08458340185</maximumDistance>
          <medianDistance>3.4</medianDistance>
        </quality>
        <evaluationMode>automatic</evaluationMode>
        <creationInfo>
          <agencyID>SORA</agencyID>
          <author>screloc@hase</author>
          <creationTime>2016-01-13T01:36:58.125197Z</creationTime>
        </creationInfo>
        <arrival publicID="smi:de.erdbeben-in-bayern/arrival/20150706.093703.57-AIC-NZ.NS04.10.EHZ">
          <pickID>smi:de.erdbeben-in-bayern/pick/20150706.093703.57-AIC-NZ.NS04.10.EHZ</pickID>
          <phase>P</phase>
          <azimuth>97.0</azimuth>
          <distance>0.03689276038</distance>
          <timeResidual>-0.99</timeResidual>
          <timeWeight>1.0</timeWeight>
          <creationInfo>
            <author>Hypo71</author>
            <creationTime>2016-01-13T01:36:58.125557Z</creationTime>
            <sc3:modificationTime>2016-01-13T01:36:58.125559Z</sc3:modificationTime>
          </creationInfo>
        </arrival>
        <arrival publicID="smi:de.erdbeben-in-bayern/arrival/20150706.093703.58-AIC-NZ.NS12.10.EHZ">
          <pickID>smi:de.erdbeben-in-bayern/pick/20150706.093703.58-AIC-NZ.NS12.10.EHZ</pickID>
          <phase>P</phase>
          <azimuth>129.0</azimuth>
          <distance>0.01169770451</distance>
          <timeResidual>-0.17</timeResidual>
          <timeWeight>1.0</timeWeight>
          <creationInfo>
            <author>Hypo71</author>
            <creationTime>2016-01-13T01:36:58.125357Z</creationTime>
            <sc3:modificationTime>2016-01-13T01:36:58.125359Z</sc3:modificationTime>
          </creationInfo>
        </arrival>
        <arrival publicID="smi:de.erdbeben-in-bayern/arrival/20150706.093703.69-AIC-NZ.NS18.10.EHZ">
          <pickID>smi:de.erdbeben-in-bayern/pick/20150706.093703.69-AIC-NZ.NS18.10.EHZ</pickID>
          <phase>P</phase>
          <azimuth>32.0</azimuth>
          <distance>0.008998234239</distance>
          <timeResidual>-0.01</timeResidual>
          <timeWeight>1.0</timeWeight>
          <creationInfo>
            <author>Hypo71</author>
            <creationTime>2016-01-13T01:36:58.125422Z</creationTime>
            <sc3:modificationTime>2016-01-13T01:36:58.125424Z</sc3:modificationTime>
          </creationInfo>
        </arrival>
        <arrival publicID="smi:de.erdbeben-in-bayern/arrival/20150706.093703.77-AIC-NZ.NS13.10.EHZ">
          <pickID>smi:de.erdbeben-in-bayern/pick/20150706.093703.77-AIC-NZ.NS13.10.EHZ</pickID>
          <phase>P</phase>
          <azimuth>163.0</azimuth>
          <distance>0.01529699821</distance>
          <timeResidual>-0.1</timeResidual>
          <timeWeight>1.0</timeWeight>
          <creationInfo>
            <author>Hypo71</author>
            <creationTime>2016-01-13T01:36:58.125385Z</creationTime>
            <sc3:modificationTime>2016-01-13T01:36:58.125387Z</sc3:modificationTime>
          </creationInfo>
        </arrival>
        <arrival publicID="smi:de.erdbeben-in-bayern/arrival/20150706.093704.10-AIC-NZ.WPRZ.10.EHZ">
          <pickID>smi:de.erdbeben-in-bayern/pick/20150706.093704.10-AIC-NZ.WPRZ.10.EHZ</pickID>
          <phase>P</phase>
          <azimuth>325.0</azimuth>
          <distance>0.0224955856</distance>
          <timeResidual>-0.02</timeResidual>
          <timeWeight>1.0</timeWeight>
          <creationInfo>
            <author>Hypo71</author>
            <creationTime>2016-01-13T01:36:58.125451Z</creationTime>
            <sc3:modificationTime>2016-01-13T01:36:58.125453Z</sc3:modificationTime>
          </creationInfo>
        </arrival>
        <arrival publicID="smi:de.erdbeben-in-bayern/arrival/20150706.093704.18-AIC-NZ.NS01.10.EHZ">
          <pickID>smi:de.erdbeben-in-bayern/pick/20150706.093704.18-AIC-NZ.NS01.10.EHZ</pickID>
          <phase>P</phase>
          <azimuth>356.0</azimuth>
          <distance>0.02969417299</distance>
          <timeResidual>-0.16</timeResidual>
          <timeWeight>1.0</timeWeight>
          <creationInfo>
            <author>Hypo71</author>
            <creationTime>2016-01-13T01:36:58.125487Z</creationTime>
            <sc3:modificationTime>2016-01-13T01:36:58.125489Z</sc3:modificationTime>
          </creationInfo>
        </arrival>
        <arrival publicID="smi:de.erdbeben-in-bayern/arrival/20150706.093704.20-AIC-NZ.NS03.10.EHZ">
          <pickID>smi:de.erdbeben-in-bayern/pick/20150706.093704.20-AIC-NZ.NS03.10.EHZ</pickID>
          <phase>P</phase>
          <azimuth>57.0</azimuth>
          <distance>0.02789452614</distance>
          <timeResidual>-0.06</timeResidual>
          <timeWeight>1.0</timeWeight>
          <creationInfo>
            <author>Hypo71</author>
            <creationTime>2016-01-13T01:36:58.125258Z</creationTime>
            <sc3:modificationTime>2016-01-13T01:36:58.125262Z</sc3:modificationTime>
          </creationInfo>
        </arrival>
        <arrival publicID="smi:de.erdbeben-in-bayern/arrival/20150706.093704.24-AIC-NZ.NS14.10.EHZ">
          <pickID>smi:de.erdbeben-in-bayern/pick/20150706.093704.24-AIC-NZ.NS14.10.EHZ</pickID>
          <phase>P</phase>
          <azimuth>153.0</azimuth>
          <distance>0.03059399641</distance>
          <timeResidual>-0.13</timeResidual>
          <timeWeight>1.0</timeWeight>
          <creationInfo>
            <author>Hypo71</author>
            <creationTime>2016-01-13T01:36:58.125679Z</creationTime>
            <sc3:modificationTime>2016-01-13T01:36:58.125681Z</sc3:modificationTime>
          </creationInfo>
        </arrival>
        <arrival publicID="smi:de.erdbeben-in-bayern/arrival/20150706.093704.29-AIC-NZ.NS11.10.EHZ">
          <pickID>smi:de.erdbeben-in-bayern/pick/20150706.093704.29-AIC-NZ.NS11.10.EHZ</pickID>
          <phase>P</phase>
          <azimuth>163.0</azimuth>
          <distance>0.02879434957</distance>
          <timeResidual>-0.02</timeResidual>
          <timeWeight>1.0</timeWeight>
          <creationInfo>
            <author>Hypo71</author>
            <creationTime>2016-01-13T01:36:58.125326Z</creationTime>
            <sc3:modificationTime>2016-01-13T01:36:58.125329Z</sc3:modificationTime>
          </creationInfo>
        </arrival>
        <arrival publicID="smi:de.erdbeben-in-bayern/arrival/20150706.093704.78-AIC-NZ.NS07.10.EHZ">
          <pickID>smi:de.erdbeben-in-bayern/pick/20150706.093704.78-AIC-NZ.NS07.10.EHZ</pickID>
          <phase>P</phase>
          <azimuth>121.0</azimuth>
          <distance>0.04409134777</distance>
          <timeResidual>-0.04</timeResidual>
          <timeWeight>1.0</timeWeight>
          <creationInfo>
            <author>Hypo71</author>
            <creationTime>2016-01-13T01:36:58.125652Z</creationTime>
            <sc3:modificationTime>2016-01-13T01:36:58.125654Z</sc3:modificationTime>
          </creationInfo>
        </arrival>
        <arrival publicID="smi:de.erdbeben-in-bayern/arrival/20150706.093704.90-S-AIC-NZ.WPRZ.10.EHN">
          <pickID>smi:de.erdbeben-in-bayern/pick/20150706.093704.90-S-AIC-NZ.WPRZ.10.EHN</pickID>
          <phase>S</phase>
          <azimuth>325.0</azimuth>
          <distance>0.0224955856</distance>
          <timeResidual>0.06</timeResidual>
          <timeWeight>1.0</timeWeight>
          <creationInfo>
            <author>Hypo71</author>
            <creationTime>2016-01-13T01:36:58.125451Z</creationTime>
            <sc3:modificationTime>2016-01-13T01:36:58.125453Z</sc3:modificationTime>
          </creationInfo>
        </arrival>
        <arrival publicID="smi:de.erdbeben-in-bayern/arrival/20150706.093704.96-AIC-NZ.NS16.10.EHZ">
          <pickID>smi:de.erdbeben-in-bayern/pick/20150706.093704.96-AIC-NZ.NS16.10.EHZ</pickID>
          <phase>P</phase>
          <azimuth>200.0</azimuth>
          <distance>0.03959223065</distance>
          <timeResidual>0.29</timeResidual>
          <timeWeight>1.0</timeWeight>
          <creationInfo>
            <author>Hypo71</author>
            <creationTime>2016-01-13T01:36:58.125586Z</creationTime>
            <sc3:modificationTime>2016-01-13T01:36:58.125589Z</sc3:modificationTime>
          </creationInfo>
        </arrival>
        <arrival publicID="smi:de.erdbeben-in-bayern/arrival/20150706.093705.09-AIC-NZ.RT22.10.EHZ">
          <pickID>smi:de.erdbeben-in-bayern/pick/20150706.093705.09-AIC-NZ.RT22.10.EHZ</pickID>
          <phase>P</phase>
          <azimuth>172.0</azimuth>
          <distance>0.04229170093</distance>
          <timeResidual>0.3</timeResidual>
          <timeWeight>1.0</timeWeight>
          <creationInfo>
            <author>Hypo71</author>
            <creationTime>2016-01-13T01:36:58.125522Z</creationTime>
            <sc3:modificationTime>2016-01-13T01:36:58.125524Z</sc3:modificationTime>
          </creationInfo>
        </arrival>
        <arrival publicID="smi:de.erdbeben-in-bayern/arrival/20150706.093705.16-S-AIC-NZ.NS01.10.EHN">
          <pickID>smi:de.erdbeben-in-bayern/pick/20150706.093705.16-S-AIC-NZ.NS01.10.EHN</pickID>
          <phase>S</phase>
          <azimuth>356.0</azimuth>
          <distance>0.02969417299</distance>
          <timeResidual>-0.06</timeResidual>
          <timeWeight>1.0</timeWeight>
          <creationInfo>
            <author>Hypo71</author>
            <creationTime>2016-01-13T01:36:58.125487Z</creationTime>
            <sc3:modificationTime>2016-01-13T01:36:58.125489Z</sc3:modificationTime>
          </creationInfo>
        </arrival>
        <arrival publicID="smi:de.erdbeben-in-bayern/arrival/20150706.093705.28-S-AIC-NZ.NS14.10.EH1">
          <pickID>smi:de.erdbeben-in-bayern/pick/20150706.093705.28-S-AIC-NZ.NS14.10.EH1</pickID>
          <phase>S</phase>
          <azimuth>153.0</azimuth>
          <distance>0.03059399641</distance>
          <timeResidual>0.01</timeResidual>
          <timeWeight>1.0</timeWeight>
          <creationInfo>
            <author>Hypo71</author>
            <creationTime>2016-01-13T01:36:58.125679Z</creationTime>
            <sc3:modificationTime>2016-01-13T01:36:58.125681Z</sc3:modificationTime>
          </creationInfo>
        </arrival>
        <arrival publicID="smi:de.erdbeben-in-bayern/arrival/20150706.093705.34-AIC-NZ.NS15.10.EHZ">
          <pickID>smi:de.erdbeben-in-bayern/pick/20150706.093705.34-AIC-NZ.NS15.10.EHZ</pickID>
          <phase>P</phase>
          <azimuth>143.0</azimuth>
          <distance>0.04769064147</distance>
          <timeResidual>0.38</timeResidual>
          <timeWeight>1.0</timeWeight>
          <creationInfo>
            <author>Hypo71</author>
            <creationTime>2016-01-13T01:36:58.125715Z</creationTime>
            <sc3:modificationTime>2016-01-13T01:36:58.125717Z</sc3:modificationTime>
          </creationInfo>
        </arrival>
        <arrival publicID="smi:de.erdbeben-in-bayern/arrival/20150706.093705.51-S-AIC-NZ.NS03.10.EHN">
          <pickID>smi:de.erdbeben-in-bayern/pick/20150706.093705.51-S-AIC-NZ.NS03.10.EHN</pickID>
          <phase>S</phase>
          <azimuth>57.0</azimuth>
          <distance>0.02789452614</distance>
          <timeResidual>0.44</timeResidual>
          <timeWeight>1.0</timeWeight>
          <creationInfo>
            <author>Hypo71</author>
            <creationTime>2016-01-13T01:36:58.125258Z</creationTime>
            <sc3:modificationTime>2016-01-13T01:36:58.125262Z</sc3:modificationTime>
          </creationInfo>
        </arrival>
        <arrival publicID="smi:de.erdbeben-in-bayern/arrival/20150706.093705.54-AIC-NZ.RT23.10.EHZ">
          <pickID>smi:de.erdbeben-in-bayern/pick/20150706.093705.54-AIC-NZ.RT23.10.EHZ</pickID>
          <phase>P</phase>
          <azimuth>193.0</azimuth>
          <distance>0.0638874631</distance>
          <timeResidual>0.12</timeResidual>
          <timeWeight>1.0</timeWeight>
          <creationInfo>
            <author>Hypo71</author>
            <creationTime>2016-01-13T01:36:58.125614Z</creationTime>
            <sc3:modificationTime>2016-01-13T01:36:58.125616Z</sc3:modificationTime>
          </creationInfo>
        </arrival>
        <arrival publicID="smi:de.erdbeben-in-bayern/arrival/20150706.093705.63-AIC-NZ.RT01.10.EHZ">
          <pickID>smi:de.erdbeben-in-bayern/pick/20150706.093705.63-AIC-NZ.RT01.10.EHZ</pickID>
          <phase>P</phase>
          <azimuth>184.0</azimuth>
          <distance>0.08458340185</distance>
          <timeResidual>-0.21</timeResidual>
          <timeWeight>1.0</timeWeight>
          <creationInfo>
            <author>Hypo71</author>
            <creationTime>2016-01-13T01:36:58.125742Z</creationTime>
            <sc3:modificationTime>2016-01-13T01:36:58.125745Z</sc3:modificationTime>
          </creationInfo>
        </arrival>
        <arrival publicID="smi:de.erdbeben-in-bayern/arrival/20150706.093705.65-S-AIC-NZ.RT22.10.EHN">
          <pickID>smi:de.erdbeben-in-bayern/pick/20150706.093705.65-S-AIC-NZ.RT22.10.EHN</pickID>
          <phase>S</phase>
          <azimuth>172.0</azimuth>
          <distance>0.04229170093</distance>
          <timeResidual>-0.34</timeResidual>
          <timeWeight>1.0</timeWeight>
          <creationInfo>
            <author>Hypo71</author>
            <creationTime>2016-01-13T01:36:58.125522Z</creationTime>
            <sc3:modificationTime>2016-01-13T01:36:58.125524Z</sc3:modificationTime>
          </creationInfo>
        </arrival>
        <arrival publicID="smi:de.erdbeben-in-bayern/arrival/20150706.093705.76-S-AIC-NZ.NS13.10.EH1">
          <pickID>smi:de.erdbeben-in-bayern/pick/20150706.093705.76-S-AIC-NZ.NS13.10.EH1</pickID>
          <phase>S</phase>
          <azimuth>163.0</azimuth>
          <distance>0.01529699821</distance>
          <timeResidual>1.34</timeResidual>
          <timeWeight>1.0</timeWeight>
          <creationInfo>
            <author>Hypo71</author>
            <creationTime>2016-01-13T01:36:58.125385Z</creationTime>
            <sc3:modificationTime>2016-01-13T01:36:58.125387Z</sc3:modificationTime>
          </creationInfo>
        </arrival>
        <arrival publicID="smi:de.erdbeben-in-bayern/arrival/20150706.093707.16-S-AIC-NZ.RT23.10.EHN">
          <pickID>smi:de.erdbeben-in-bayern/pick/20150706.093707.16-S-AIC-NZ.RT23.10.EHN</pickID>
          <phase>S</phase>
          <azimuth>193.0</azimuth>
          <distance>0.0638874631</distance>
          <timeResidual>0.08</timeResidual>
          <timeWeight>1.0</timeWeight>
          <creationInfo>
            <author>Hypo71</author>
            <creationTime>2016-01-13T01:36:58.125614Z</creationTime>
            <sc3:modificationTime>2016-01-13T01:36:58.125616Z</sc3:modificationTime>
          </creationInfo>
        </arrival>
      </origin>
      <magnitude publicID="smi:de.erdbeben-in-bayern/magnitude/Origin/20160113013658.125122.3527/netMag.M">
        <mag>
          <value>0.9578666602</value>
        </mag>
        <type>M</type>
        <methodID>smi:de.erdbeben-in-bayern/magnitude_method/weighted_average</methodID>
        <stationCount>10</stationCount>
        <creationInfo>
          <agencyID>SORA</agencyID>
          <author>scmag@hase</author>
          <creationTime>2016-01-13T01:37:36.811167Z</creationTime>
        </creationInfo>
      </magnitude>
      <stationMagnitude publicID="smi:de.erdbeben-in-bayern/station_magnitude/Origin/20160113013658.125122.3527/staMag.MLv/NZ.NS01">
        <originID>smi:de.erdbeben-in-bayern/origin/Origin/20160113013658.125122.3527</originID>
        <mag>
          <value>0.5413138659</value>
        </mag>
        <type>MLv</type>
        <amplitudeID>smi:de.erdbeben-in-bayern/amplitude/20150706.093704.18-AIC-NZ.NS01.10.EHZ.MLv</amplitudeID>
        <waveformID channelCode="EHZ" locationCode="10" networkCode="NZ" stationCode="NS01"></waveformID>
        <creationInfo>
          <agencyID>SORA</agencyID>
          <author>scmag@hase</author>
          <creationTime>2016-01-13T01:37:36.809187Z</creationTime>
        </creationInfo>
      </stationMagnitude>
      <stationMagnitude publicID="smi:de.erdbeben-in-bayern/station_magnitude/Origin/20160113013658.125122.3527/staMag.MLv/NZ.NS03">
        <originID>smi:de.erdbeben-in-bayern/origin/Origin/20160113013658.125122.3527</originID>
        <mag>
          <value>1.041889905</value>
        </mag>
        <type>MLv</type>
        <amplitudeID>smi:de.erdbeben-in-bayern/amplitude/20150706.093704.20-AIC-NZ.NS03.10.EHZ.MLv</amplitudeID>
        <waveformID channelCode="EHZ" locationCode="10" networkCode="NZ" stationCode="NS03"></waveformID>
        <creationInfo>
          <agencyID>SORA</agencyID>
          <author>scmag@hase</author>
          <creationTime>2016-01-13T01:37:36.809348Z</creationTime>
        </creationInfo>
      </stationMagnitude>
      <stationMagnitude publicID="smi:de.erdbeben-in-bayern/station_magnitude/Origin/20160113013658.125122.3527/staMag.MLv/NZ.NS04">
        <originID>smi:de.erdbeben-in-bayern/origin/Origin/20160113013658.125122.3527</originID>
        <mag>
          <value>0.7700860307</value>
        </mag>
        <type>MLv</type>
        <amplitudeID>smi:de.erdbeben-in-bayern/amplitude/20150706.093703.57-AIC-NZ.NS04.10.EHZ.MLv</amplitudeID>
        <waveformID channelCode="EHZ" locationCode="10" networkCode="NZ" stationCode="NS04"></waveformID>
        <creationInfo>
          <agencyID>SORA</agencyID>
          <author>scmag@hase</author>
          <creationTime>2016-01-13T01:37:36.809530Z</creationTime>
        </creationInfo>
      </stationMagnitude>
      <stationMagnitude publicID="smi:de.erdbeben-in-bayern/station_magnitude/Origin/20160113013658.125122.3527/staMag.MLv/NZ.NS07">
        <originID>smi:de.erdbeben-in-bayern/origin/Origin/20160113013658.125122.3527</originID>
        <mag>
